CCSDS_OMM_VERS = 2.0
CREATION_DATE  = 
ORIGINATOR     = 

OBJECT_NAME    = ATLAS CENTAUR R/B
OBJECT_ID      = 1972-065B
CENTER_NAME    = EARTH
REF_FRAME      = TEME
TIME_SYSTEM    = UTC
MEAN_ELEMENT_THEORY = SGP/SGP4

EPOCH          = 2025-12-25T03:52:59.454336
MEAN_MOTION    = 14.77440317
ECCENTRICITY   = .0033225
INCLINATION    = 35.0025
RA_OF_ASC_NODE = 22.4311
ARG_OF_PERICENTER = 103.5782
MEAN_ANOMALY   = 256.8622

EPHEMERIS_TYPE = 0
CLASSIFICATION_TYPE = U
NORAD_CAT_ID   = 6155
ELEMENT_SET_NO = 999
REV_AT_EPOCH   = 83023
BSTAR          = .17151E-3
MEAN_MOTION_DOT = .1228E-4
MEAN_MOTION_DDOT = 0

CCSDS_OMM_VERS = 2.0
CREATION_DATE  = 
ORIGINATOR     = 

OBJECT_NAME    = SL-8 R/B
OBJECT_ID      = 1975-112B
CENTER_NAME    = EARTH
REF_FRAME      = TEME
TIME_SYSTEM    = UTC
MEAN_ELEMENT_THEORY = SGP/SGP4

EPOCH          = 2025-12-25T11:46:47.266176
MEAN_MOTION    = 14.38154082
ECCENTRICITY   = .0016687
INCLINATION    = 74.0594
RA_OF_ASC_NODE = 155.4037
ARG_OF_PERICENTER = 265.4446
MEAN_ANOMALY   = 94.4802

EPHEMERIS_TYPE = 0
CLASSIFICATION_TYPE = U
NORAD_CAT_ID   = 8459
ELEMENT_SET_NO = 999
REV_AT_EPOCH   = 62120
BSTAR          = .12079E-3
MEAN_MOTION_DOT = .341E-5
MEAN_MOTION_DDOT = 0

CCSDS_OMM_VERS = 2.0
CREATION_DATE  = 
ORIGINATOR     = 

OBJECT_NAME    = SL-3 R/B
OBJECT_ID      = 1977-057B
CENTER_NAME    = EARTH
REF_FRAME      = TEME
TIME_SYSTEM    = UTC
MEAN_ELEMENT_THEORY = SGP/SGP4

EPOCH          = 2025-12-25T15:51:14.359104
MEAN_MOTION    = 15.43255234
ECCENTRICITY   = .0007334
INCLINATION    = 97.5693
RA_OF_ASC_NODE = 163.4947
ARG_OF_PERICENTER = 181.6781
MEAN_ANOMALY   = 178.4442

EPHEMERIS_TYPE = 0
CLASSIFICATION_TYPE = U
NORAD_CAT_ID   = 10114
ELEMENT_SET_NO = 999
REV_AT_EPOCH   = 65690
BSTAR          = .28997E-3
MEAN_MOTION_DOT = .12814E-3
MEAN_MOTION_DDOT = 0

CCSDS_OMM_VERS = 2.0
CREATION_DATE  = 
ORIGINATOR     = 

OBJECT_NAME    = SEASAT 1
OBJECT_ID      = 1978-064A
CENTER_NAME    = EARTH
REF_FRAME      = TEME
TIME_SYSTEM    = UTC
MEAN_ELEMENT_THEORY = SGP/SGP4

EPOCH          = 2025-12-25T18:09:35.936352
MEAN_MOTION    = 14.46074961
ECCENTRICITY   = .0001317
INCLINATION    = 108.0139
RA_OF_ASC_NODE = 330.3444
ARG_OF_PERICENTER = 256.0802
MEAN_ANOMALY   = 104.0197

EPHEMERIS_TYPE = 0
CLASSIFICATION_TYPE = U
NORAD_CAT_ID   = 10967
ELEMENT_SET_NO = 999
REV_AT_EPOCH   = 49582
BSTAR          = .14847E-3
MEAN_MOTION_DOT = .393E-5
MEAN_MOTION_DDOT = 0

CCSDS_OMM_VERS = 2.0
CREATION_DATE  = 
ORIGINATOR     = 

OBJECT_NAME    = SL-14 R/B
OBJECT_ID      = 1979-011B
CENTER_NAME    = EARTH
REF_FRAME      = TEME
TIME_SYSTEM    = UTC
MEAN_ELEMENT_THEORY = SGP/SGP4

EPOCH          = 2025-12-25T12:46:42.041856
MEAN_MOTION    = 14.91785067
ECCENTRICITY   = .0014848
INCLINATION    = 82.5235
RA_OF_ASC_NODE = 166.9109
ARG_OF_PERICENTER = 308.8354
MEAN_ANOMALY   = 51.1539

EPHEMERIS_TYPE = 0
CLASSIFICATION_TYPE = U
NORAD_CAT_ID   = 11267
ELEMENT_SET_NO = 999
REV_AT_EPOCH   = 51772
BSTAR          = .64864E-4
MEAN_MOTION_DOT = .68E-5
MEAN_MOTION_DDOT = 0

CCSDS_OMM_VERS = 2.0
CREATION_DATE  = 
ORIGINATOR     = 

OBJECT_NAME    = SL-8 R/B
OBJECT_ID      = 1979-089B
CENTER_NAME    = EARTH
REF_FRAME      = TEME
TIME_SYSTEM    = UTC
MEAN_ELEMENT_THEORY = SGP/SGP4

EPOCH          = 2025-12-25T17:42:16.232832
MEAN_MOTION    = 14.42291589
ECCENTRICITY   = .0014736
INCLINATION    = 74.0674
RA_OF_ASC_NODE = 227.9228
ARG_OF_PERICENTER = 56.9083
MEAN_ANOMALY   = 303.3485

EPHEMERIS_TYPE = 0
CLASSIFICATION_TYPE = U
NORAD_CAT_ID   = 11574
ELEMENT_SET_NO = 999
REV_AT_EPOCH   = 42544
BSTAR          = .7979E-4
MEAN_MOTION_DOT = .237E-5
MEAN_MOTION_DDOT = 0

CCSDS_OMM_VERS = 2.0
CREATION_DATE  = 
ORIGINATOR     = 

OBJECT_NAME    = SL-14 R/B
OBJECT_ID      = 1980-005B
CENTER_NAME    = EARTH
REF_FRAME      = TEME
TIME_SYSTEM    = UTC
MEAN_ELEMENT_THEORY = SGP/SGP4

EPOCH          = 2025-12-25T11:55:24.580128
MEAN_MOTION    = 14.90805996
ECCENTRICITY   = .0017062
INCLINATION    = 82.5139
RA_OF_ASC_NODE = 17.5994
ARG_OF_PERICENTER = 54.6025
MEAN_ANOMALY   = 305.6785

EPHEMERIS_TYPE = 0
CLASSIFICATION_TYPE = U
NORAD_CAT_ID   = 11672
ELEMENT_SET_NO = 999
REV_AT_EPOCH   = 46543
BSTAR          = .59179E-4
MEAN_MOTION_DOT = .609E-5
MEAN_MOTION_DDOT = 0

CCSDS_OMM_VERS = 2.0
CREATION_DATE  = 
ORIGINATOR     = 

OBJECT_NAME    = SL-8 R/B
OBJECT_ID      = 1981-003B
CENTER_NAME    = EARTH
REF_FRAME      = TEME
TIME_SYSTEM    = UTC
MEAN_ELEMENT_THEORY = SGP/SGP4

EPOCH          = 2025-12-25T10:02:09.411936
MEAN_MOTION    = 15.07413948
ECCENTRICITY   = .027773
INCLINATION    = 82.9346
RA_OF_ASC_NODE = 358.5363
ARG_OF_PERICENTER = 76.7198
MEAN_ANOMALY   = 286.4843

EPHEMERIS_TYPE = 0
CLASSIFICATION_TYPE = U
NORAD_CAT_ID   = 12139
ELEMENT_SET_NO = 999
REV_AT_EPOCH   = 30347
BSTAR          = .48299E-3
MEAN_MOTION_DOT = .18262E-3
MEAN_MOTION_DDOT = 0

CCSDS_OMM_VERS = 2.0
CREATION_DATE  = 
ORIGINATOR     = 

OBJECT_NAME    = SL-3 R/B
OBJECT_ID      = 1981-046B
CENTER_NAME    = EARTH
REF_FRAME      = TEME
TIME_SYSTEM    = UTC
MEAN_ELEMENT_THEORY = SGP/SGP4

EPOCH          = 2025-12-25T16:36:08.755200
MEAN_MOTION    = 15.39871793
ECCENTRICITY   = .0018103
INCLINATION    = 81.2322
RA_OF_ASC_NODE = 18.4397
ARG_OF_PERICENTER = 276.9632
MEAN_ANOMALY   = 82.9551

EPHEMERIS_TYPE = 0
CLASSIFICATION_TYPE = U
NORAD_CAT_ID   = 12465
ELEMENT_SET_NO = 999
REV_AT_EPOCH   = 42703
BSTAR          = .28244E-3
MEAN_MOTION_DOT = .11316E-3
MEAN_MOTION_DDOT = 0

CCSDS_OMM_VERS = 2.0
CREATION_DATE  = 
ORIGINATOR     = 

OBJECT_NAME    = SL-3 R/B
OBJECT_ID      = 1981-103B
CENTER_NAME    = EARTH
REF_FRAME      = TEME
TIME_SYSTEM    = UTC
MEAN_ELEMENT_THEORY = SGP/SGP4

EPOCH          = 2025-12-25T16:36:07.918848
MEAN_MOTION    = 15.20383892
ECCENTRICITY   = .001278
INCLINATION    = 81.1602
RA_OF_ASC_NODE = 300.1840
ARG_OF_PERICENTER = 167.6929
MEAN_ANOMALY   = 192.4617

EPHEMERIS_TYPE = 0
CLASSIFICATION_TYPE = U
NORAD_CAT_ID   = 12904
ELEMENT_SET_NO = 999
REV_AT_EPOCH   = 96198
BSTAR          = .27615E-3
MEAN_MOTION_DOT = .6051E-4
MEAN_MOTION_DDOT = 0

CCSDS_OMM_VERS = 2.0
CREATION_DATE  = 
ORIGINATOR     = 

OBJECT_NAME    = SL-3 R/B
OBJECT_ID      = 1982-013B
CENTER_NAME    = EARTH
REF_FRAME      = TEME
TIME_SYSTEM    = UTC
MEAN_ELEMENT_THEORY = SGP/SGP4

EPOCH          = 2025-12-25T17:36:37.125792
MEAN_MOTION    = 15.21196989
ECCENTRICITY   = .002409
INCLINATION    = 81.1739
RA_OF_ASC_NODE = 247.3998
ARG_OF_PERICENTER = 69.2855
MEAN_ANOMALY   = 291.0955

EPHEMERIS_TYPE = 0
CLASSIFICATION_TYPE = U
NORAD_CAT_ID   = 13068
ELEMENT_SET_NO = 999
REV_AT_EPOCH   = 39310
BSTAR          = .1905E-3
MEAN_MOTION_DOT = .4307E-4
MEAN_MOTION_DDOT = 0

CCSDS_OMM_VERS = 2.0
CREATION_DATE  = 
ORIGINATOR     = 

OBJECT_NAME    = SL-3 R/B
OBJECT_ID      = 1982-039B
CENTER_NAME    = EARTH
REF_FRAME      = TEME
TIME_SYSTEM    = UTC
MEAN_ELEMENT_THEORY = SGP/SGP4

EPOCH          = 2025-12-25T16:44:18.121344
MEAN_MOTION    = 15.09598147
ECCENTRICITY   = .0029427
INCLINATION    = 81.1710
RA_OF_ASC_NODE = 301.1893
ARG_OF_PERICENTER = 208.1866
MEAN_ANOMALY   = 151.7769

EPHEMERIS_TYPE = 0
CLASSIFICATION_TYPE = U
NORAD_CAT_ID   = 13154
ELEMENT_SET_NO = 999
REV_AT_EPOCH   = 37047
BSTAR          = .19486E-3
MEAN_MOTION_DOT = .3185E-4
MEAN_MOTION_DDOT = 0

