ATLAS CENTAUR R/B       
1 06155U 72065B   25359.16179924  .00001228  00000+0  17151-3 0  9990
2 06155  35.0025  22.4311 0033225 103.5782 256.8622 14.77440317830233
SL-8 R/B                
1 08459U 75112B   25359.49082484  .00000341  00000+0  12079-3 0  9994
2 08459  74.0594 155.4037 0016687 265.4446  94.4802 14.38154082621205
SL-3 R/B                
1 10114U 77057B   25359.66058286  .00012814  00000+0  28997-3 0  9991
2 10114  97.5693 163.4947 0007334 181.6781 178.4442 15.43255234656901
SEASAT 1                
1 10967U 78064A   25359.75666593  .00000393  00000+0  14847-3 0  9990
2 10967 108.0139 330.3444 0001317 256.0802 104.0197 14.46074961495825
SL-14 R/B               
1 11267U 79011B   25359.53243104  .00000680  00000+0  64864-4 0  9996
2 11267  82.5235 166.9109 0014848 308.8354  51.1539 14.91785067517726
SL-8 R/B                
1 11574U 79089B   25359.73768788  .00000237  00000+0  79790-4 0  9996
2 11574  74.0674 227.9228 0014736  56.9083 303.3485 14.42291589425442
SL-14 R/B               
1 11672U 80005B   25359.49681227  .00000609  00000+0  59179-4 0  9992
2 11672  82.5139  17.5994 0017062  54.6025 305.6785 14.90805996465437
SL-8 R/B                
1 12139U 81003B   25359.41816449  .00018262  00000+0  48299-3 0  9992
2 12139  82.9346 358.5363 0277730  76.7198 286.4843 15.07413948303471
SL-3 R/B                
1 12465U 81046B   25359.69176800  .00011316  00000+0  28244-3 0  9992
2 12465  81.2322  18.4397 0018103 276.9632  82.9551 15.39871793427037
SL-3 R/B                
1 12904U 81103B   25359.69175832  .00006051  00000+0  27615-3 0  9999
2 12904  81.1602 300.1840 0012780 167.6929 192.4617 15.20383892961984
SL-3 R/B                
1 13068U 82013B   25359.73376303  .00004307  00000+0  19050-3 0  9999
2 13068  81.1739 247.3998 0024090  69.2855 291.0955 15.21196989393109
SL-3 R/B                
1 13154U 82039B   25359.69743196  .00003185  00000+0  19486-3 0  9992
2 13154  81.1710 301.1893 0029427 208.1866 151.7769 15.09598147370470
